[{"OBJECT_NAME":"QIANFAN-101","OBJECT_ID":"2025-233L","EPOCH":"2026-03-09T23:40:08.087808","MEAN_MOTION":14.26740528,"ECCENTRICITY":0.00171671,"INCLINATION":88.9944,"RA_OF_ASC_NODE":51.9499,"ARG_OF_PERICENTER":106.3437,"MEAN_ANOMALY":253.9646,"EPHEMERIS_TYPE":0,"CLASSIFICATION_TYPE":"U","NORAD_CAT_ID":66043,"ELEMENT_SET_NO":999,"REV_AT_EPOCH":2048,"BSTAR":0.00028904417,"MEAN_MOTION_DOT":7.15e-6,"MEAN_MOTION_DDOT":0},{"OBJECT_NAME":"FENGYUN 1C DEB","OBJECT_ID":"1999-025AKF","EPOCH":"2026-03-09T01:27:00.119520","MEAN_MOTION":14.23494164,"ECCENTRICITY":0.00186192,"INCLINATION":98.6836,"RA_OF_ASC_NODE":118.5105,"ARG_OF_PERICENTER":188.9396,"MEAN_ANOMALY":171.1453,"EPHEMERIS_TYPE":0,"CLASSIFICATION_TYPE":"U","NORAD_CAT_ID":30541,"ELEMENT_SET_NO":999,"REV_AT_EPOCH":98555,"BSTAR":0.0010339293,"MEAN_MOTION_DOT":2.312e-5,"MEAN_MOTION_DDOT":0}]
